[{"OBJECT_NAME":"OBJECT H","OBJECT_ID":"2024-092H","EPOCH":"2026-03-09T22:10:57.432576","MEAN_MOTION":14.31801309,"ECCENTRICITY":0.00131217,"INCLINATION":98.6549,"RA_OF_ASC_NODE":188.1402,"ARG_OF_PERICENTER":138.5744,"MEAN_ANOMALY":221.6437,"EPHEMERIS_TYPE":0,"CLASSIFICATION_TYPE":"U","NORAD_CAT_ID":59780,"ELEMENT_SET_NO":999,"REV_AT_EPOCH":9469,"BSTAR":0.00013575326,"MEAN_MOTION_DOT":3.19e-6,"MEAN_MOTION_DDOT":0},{"OBJECT_NAME":"SL-3 R\/B","OBJECT_ID":"1981-075B","EPOCH":"2026-03-09T23:39:21.121632","MEAN_MOTION":14.16412325,"ECCENTRICITY":0.00659416,"INCLINATION":81.2293,"RA_OF_ASC_NODE":11.646,"ARG_OF_PERICENTER":243.8616,"MEAN_ANOMALY":192.8582,"EPHEMERIS_TYPE":0,"CLASSIFICATION_TYPE":"U","NORAD_CAT_ID":12646,"ELEMENT_SET_NO":999,"REV_AT_EPOCH":30266,"BSTAR":5.2523282e-5,"MEAN_MOTION_DOT":1.19e-6,"MEAN_MOTION_DDOT":0}]
